[{"OBJECT_NAME":"ONEWEB-0263","OBJECT_ID":"2021-060Q","EPOCH":"2026-03-14T21:51:38.941632","MEAN_MOTION":13.16594064,"ECCENTRICITY":0.00020163,"INCLINATION":87.9005,"RA_OF_ASC_NODE":247.5289,"ARG_OF_PERICENTER":104.8144,"MEAN_ANOMALY":255.3211,"EPHEMERIS_TYPE":0,"CLASSIFICATION_TYPE":"U","NORAD_CAT_ID":48981,"ELEMENT_SET_NO":999,"REV_AT_EPOCH":22718,"BSTAR":0.00022477534,"MEAN_MOTION_DOT":9.9e-7,"MEAN_MOTION_DDOT":0},{"OBJECT_NAME":"ONEWEB-0264","OBJECT_ID":"2021-060R","EPOCH":"2026-03-14T20:55:47.286912","MEAN_MOTION":13.16593581,"ECCENTRICITY":0.00016651,"INCLINATION":87.9009,"RA_OF_ASC_NODE":247.5407,"ARG_OF_PERICENTER":106.3772,"MEAN_ANOMALY":253.7542,"EPHEMERIS_TYPE":0,"CLASSIFICATION_TYPE":"U","NORAD_CAT_ID":48982,"ELEMENT_SET_NO":999,"REV_AT_EPOCH":22718,"BSTAR":0.00018040978,"MEAN_MOTION_DOT":8.2e-7,"MEAN_MOTION_DDOT":0},{"OBJECT_NAME":"ONEWEB-0266","OBJECT_ID":"2021-060T","EPOCH":"2026-03-14T21:26:33.825984","MEAN_MOTION":13.16596768,"ECCENTRICITY":0.00016994,"INCLINATION":87.9012,"RA_OF_ASC_NODE":247.5256,"ARG_OF_PERICENTER":94.0553,"MEAN_ANOMALY":266.0773,"EPHEMERIS_TYPE":0,"CLASSIFICATION_TYPE":"U","NORAD_CAT_ID":48984,"ELEMENT_SET_NO":999,"REV_AT_EPOCH":22717,"BSTAR":3.9914667e-5,"MEAN_MOTION_DOT":2.8e-7,"MEAN_MOTION_DDOT":0},{"OBJECT_NAME":"ONEWEB-0267","OBJECT_ID":"2021-060U","EPOCH":"2026-03-14T21:42:31.872384","MEAN_MOTION":13.16593699,"ECCENTRICITY":0.00017778,"INCLINATION":87.9005,"RA_OF_ASC_NODE":247.5199,"ARG_OF_PERICENTER":103.3601,"MEAN_ANOMALY":256.7729,"EPHEMERIS_TYPE":0,"CLASSIFICATION_TYPE":"U","NORAD_CAT_ID":48985,"ELEMENT_SET_NO":999,"REV_AT_EPOCH":22718,"BSTAR":5.4422769e-5,"MEAN_MOTION_DOT":3.4e-7,"MEAN_MOTION_DDOT":0},{"OBJECT_NAME":"ONEWEB-0268","OBJECT_ID":"2021-060V","EPOCH":"2026-03-14T20:56:56.461344","MEAN_MOTION":13.16593146,"ECCENTRICITY":0.00015769,"INCLINATION":87.9009,"RA_OF_ASC_NODE":247.536,"ARG_OF_PERICENTER":99.0164,"MEAN_ANOMALY":261.1145,"EPHEMERIS_TYPE":0,"CLASSIFICATION_TYPE":"U","NORAD_CAT_ID":48986,"ELEMENT_SET_NO":999,"REV_AT_EPOCH":22744,"BSTAR":-0.00038917209,"MEAN_MOTION_DOT":-1.36e-6,"MEAN_MOTION_DDOT":0},{"OBJECT_NAME":"ONEWEB-0269","OBJECT_ID":"2021-060W","EPOCH":"2026-03-14T22:19:00.768000","MEAN_MOTION":13.16594049,"ECCENTRICITY":0.00014781,"INCLINATION":87.8998,"RA_OF_ASC_NODE":247.5379,"ARG_OF_PERICENTER":94.7235,"MEAN_ANOMALY":265.4064,"EPHEMERIS_TYPE":0,"CLASSIFICATION_TYPE":"U","NORAD_CAT_ID":48987,"ELEMENT_SET_NO":999,"REV_AT_EPOCH":22722,"BSTAR":0.00019790614,"MEAN_MOTION_DOT":8.9e-7,"MEAN_MOTION_DDOT":0},{"OBJECT_NAME":"ONEWEB-0270","OBJECT_ID":"2021-060X","EPOCH":"2026-03-14T20:54:39.613248","MEAN_MOTION":13.16594302,"ECCENTRICITY":0.00020884,"INCLINATION":87.9009,"RA_OF_ASC_NODE":247.5381,"ARG_OF_PERICENTER":101.6542,"MEAN_ANOMALY":258.4823,"EPHEMERIS_TYPE":0,"CLASSIFICATION_TYPE":"U","NORAD_CAT_ID":48988,"ELEMENT_SET_NO":999,"REV_AT_EPOCH":22725,"BSTAR":0.00010596438,"MEAN_MOTION_DOT":5.3e-7,"MEAN_MOTION_DDOT":0},{"OBJECT_NAME":"ONEWEB-0271","OBJECT_ID":"2021-060Y","EPOCH":"2026-03-14T22:25:49.461600","MEAN_MOTION":13.16596916,"ECCENTRICITY":0.00018716,"INCLINATION":87.9008,"RA_OF_ASC_NODE":247.5161,"ARG_OF_PERICENTER":104.3848,"MEAN_ANOMALY":255.7491,"EPHEMERIS_TYPE":0,"CLASSIFICATION_TYPE":"U","NORAD_CAT_ID":48989,"ELEMENT_SET_NO":999,"REV_AT_EPOCH":22726,"BSTAR":0.00018086963,"MEAN_MOTION_DOT":8.2e-7,"MEAN_MOTION_DDOT":0},{"OBJECT_NAME":"ONEWEB-0272","OBJECT_ID":"2021-060Z","EPOCH":"2026-03-14T21:08:18.633408","MEAN_MOTION":13.16592793,"ECCENTRICITY":0.00016512,"INCLINATION":87.9008,"RA_OF_ASC_NODE":247.5383,"ARG_OF_PERICENTER":105.6615,"MEAN_ANOMALY":254.4698,"EPHEMERIS_TYPE":0,"CLASSIFICATION_TYPE":"U","NORAD_CAT_ID":48990,"ELEMENT_SET_NO":999,"REV_AT_EPOCH":22720,"BSTAR":-8.466699e-5,"MEAN_MOTION_DOT":-2.0e-7,"MEAN_MOTION_DDOT":0},{"OBJECT_NAME":"ONEWEB-0273","OBJECT_ID":"2021-060AA","EPOCH":"2026-03-14T21:40:15.400992","MEAN_MOTION":13.16593737,"ECCENTRICITY":0.00018332,"INCLINATION":87.9003,"RA_OF_ASC_NODE":247.5318,"ARG_OF_PERICENTER":100.0682,"MEAN_ANOMALY":260.0656,"EPHEMERIS_TYPE":0,"CLASSIFICATION_TYPE":"U","NORAD_CAT_ID":48991,"ELEMENT_SET_NO":999,"REV_AT_EPOCH":22718,"BSTAR":-9.4962714e-5,"MEAN_MOTION_DOT":-2.3e-7,"MEAN_MOTION_DDOT":0},{"OBJECT_NAME":"ONEWEB-0274","OBJECT_ID":"2021-060AB","EPOCH":"2026-03-14T22:16:44.135904","MEAN_MOTION":13.16593915,"ECCENTRICITY":0.00014853,"INCLINATION":87.8996,"RA_OF_ASC_NODE":247.5395,"ARG_OF_PERICENTER":109.9841,"MEAN_ANOMALY":250.145,"EPHEMERIS_TYPE":0,"CLASSIFICATION_TYPE":"U","NORAD_CAT_ID":48992,"ELEMENT_SET_NO":999,"REV_AT_EPOCH":22722,"BSTAR":0.00017132361,"MEAN_MOTION_DOT":7.8e-7,"MEAN_MOTION_DDOT":0},{"OBJECT_NAME":"ONEWEB-0275","OBJECT_ID":"2021-060AC","EPOCH":"2026-03-14T22:00:46.423008","MEAN_MOTION":13.16593866,"ECCENTRICITY":0.00017188,"INCLINATION":87.9006,"RA_OF_ASC_NODE":247.5217,"ARG_OF_PERICENTER":100.7397,"MEAN_ANOMALY":259.3928,"EPHEMERIS_TYPE":0,"CLASSIFICATION_TYPE":"U","NORAD_CAT_ID":48993,"ELEMENT_SET_NO":999,"REV_AT_EPOCH":22715,"BSTAR":0.00024358925,"MEAN_MOTION_DOT":1.06e-6,"MEAN_MOTION_DDOT":0},{"OBJECT_NAME":"ONEWEB-0276","OBJECT_ID":"2021-060AD","EPOCH":"2026-03-14T20:59:13.169472","MEAN_MOTION":13.16594148,"ECCENTRICITY":0.00018649,"INCLINATION":87.901,"RA_OF_ASC_NODE":247.5306,"ARG_OF_PERICENTER":95.2722,"MEAN_ANOMALY":264.8622,"EPHEMERIS_TYPE":0,"CLASSIFICATION_TYPE":"U","NORAD_CAT_ID":48994,"ELEMENT_SET_NO":999,"REV_AT_EPOCH":22716,"BSTAR":-2.423939e-5,"MEAN_MOTION_DOT":4.0e-8,"MEAN_MOTION_DDOT":0},{"OBJECT_NAME":"ONEWEB-0277","OBJECT_ID":"2021-060AE","EPOCH":"2026-03-14T21:17:26.049984","MEAN_MOTION":13.16595954,"ECCENTRICITY":0.00018462,"INCLINATION":87.8998,"RA_OF_ASC_NODE":247.5427,"ARG_OF_PERICENTER":100.6208,"MEAN_ANOMALY":259.5131,"EPHEMERIS_TYPE":0,"CLASSIFICATION_TYPE":"U","NORAD_CAT_ID":48995,"ELEMENT_SET_NO":999,"REV_AT_EPOCH":22715,"BSTAR":0.00023961394,"MEAN_MOTION_DOT":1.04e-6,"MEAN_MOTION_DDOT":0},{"OBJECT_NAME":"ONEWEB-0278","OBJECT_ID":"2021-060AF","EPOCH":"2026-03-14T21:03:46.146816","MEAN_MOTION":13.16594208,"ECCENTRICITY":0.00017024,"INCLINATION":87.9012,"RA_OF_ASC_NODE":247.5267,"ARG_OF_PERICENTER":89.2294,"MEAN_ANOMALY":270.9032,"EPHEMERIS_TYPE":0,"CLASSIFICATION_TYPE":"U","NORAD_CAT_ID":48996,"ELEMENT_SET_NO":999,"REV_AT_EPOCH":22728,"BSTAR":-5.5178226e-5,"MEAN_MOTION_DOT":-8.0e-8,"MEAN_MOTION_DDOT":0},{"OBJECT_NAME":"ONEWEB-0279","OBJECT_ID":"2021-060AG","EPOCH":"2026-03-14T21:15:10.562688","MEAN_MOTION":13.16593962,"ECCENTRICITY":0.00017961,"INCLINATION":87.9012,"RA_OF_ASC_NODE":247.5242,"ARG_OF_PERICENTER":106.3075,"MEAN_ANOMALY":253.8254,"EPHEMERIS_TYPE":0,"CLASSIFICATION_TYPE":"U","NORAD_CAT_ID":48997,"ELEMENT_SET_NO":999,"REV_AT_EPOCH":22721,"BSTAR":-6.1408836e-5,"MEAN_MOTION_DOT":-1.1e-7,"MEAN_MOTION_DDOT":0}]
