ONEWEB-0263             
1 48981U 21060Q   26073.91086738  .00000099  00000+0  22478-3 0  9992
2 48981  87.9005 247.5289 0002016 104.8144 255.3211 13.16594064227187
ONEWEB-0264             
1 48982U 21060R   26073.87207508  .00000082  00000+0  18041-3 0  9991
2 48982  87.9009 247.5407 0001665 106.3772 253.7542 13.16593581227189
ONEWEB-0266             
1 48984U 21060T   26073.89344706  .00000028  00000+0  39915-4 0  9991
2 48984  87.9012 247.5256 0001699  94.0553 266.0773 13.16596768227176
ONEWEB-0267             
1 48985U 21060U   26073.90453556  .00000034  00000+0  54423-4 0  9996
2 48985  87.9005 247.5199 0001777 103.3601 256.7729 13.16593699227188
ONEWEB-0268             
1 48986U 21060V   26073.87287571 -.00000136  00000+0 -38917-3 0  9999
2 48986  87.9009 247.5360 0001576  99.0164 261.1145 13.16593146227443
ONEWEB-0269             
1 48987U 21060W   26073.92987000  .00000089  00000+0  19791-3 0  9994
2 48987  87.8998 247.5379 0001478  94.7235 265.4064 13.16594049227228
ONEWEB-0270             
1 48988U 21060X   26073.87129182  .00000053  00000+0  10596-3 0  9993
2 48988  87.9009 247.5381 0002088 101.6542 258.4823 13.16594302227253
ONEWEB-0271             
1 48989U 21060Y   26073.93460025  .00000082  00000+0  18087-3 0  9990
2 48989  87.9008 247.5161 0001871 104.3848 255.7491 13.16596916227262
ONEWEB-0272             
1 48990U 21060Z   26073.88077122 -.00000020  00000+0 -84667-4 0  9990
2 48990  87.9008 247.5383 0001651 105.6615 254.4698 13.16592793227200
ONEWEB-0273             
1 48991U 21060AA  26073.90295603 -.00000023  00000+0 -94963-4 0  9993
2 48991  87.9003 247.5318 0001833 100.0682 260.0656 13.16593737227182
ONEWEB-0274             
1 48992U 21060AB  26073.92828861  .00000078  00000+0  17132-3 0  9994
2 48992  87.8996 247.5395 0001485 109.9841 250.1450 13.16593915227221
ONEWEB-0275             
1 48993U 21060AC  26073.91720397  .00000106  00000+0  24359-3 0  9990
2 48993  87.9006 247.5217 0001718 100.7397 259.3928 13.16593866227150
ONEWEB-0276             
1 48994U 21060AD  26073.87445798  .00000004  00000+0 -24239-4 0  9991
2 48994  87.9010 247.5306 0001864  95.2722 264.8622 13.16594148227164
ONEWEB-0277             
1 48995U 21060AE  26073.88710706  .00000104  00000+0  23961-3 0  9997
2 48995  87.8998 247.5427 0001846 100.6208 259.5131 13.16595954227154
ONEWEB-0278             
1 48996U 21060AF  26073.87761744 -.00000008  00000+0 -55178-4 0  9996
2 48996  87.9012 247.5267 0001702  89.2294 270.9032 13.16594208227285
ONEWEB-0279             
1 48997U 21060AG  26073.88553892 -.00000011  00000+0 -61409-4 0  9999
2 48997  87.9012 247.5242 0001796 106.3075 253.8254 13.16593962227215
